%
(Programm automatisch erzeugt)
(Programmname: CSS_Wechsel)
(Masseinheit: mm)
G18 G7 G90 G91.1 G40 G80
G21
G95
G54

(=== SICHERHEITSPARAMETER ===)
(Werkzeugwechselpunkt: X150.000 Z300.000 Werkstueckkoordinaten)
(Rueckzugsebenen: XRA=40.000 XRI=0.000)
(               ZRA=2.000 ZRI=-60.000)
(Rohteil Aussendurchmesser: 40.000 mm)
(Rohteil Z-Bereich: 0.000 bis -55.000 mm)
(=== END SICHERHEITSPARAMETER ===)



(=== Subroutine Definitions ===)
o100 sub
G1 X40.000 Z0.000
G1 X0.000 Z0.000
o100 endsub
o101 sub
G1 X40.000 Z0.000
G1 X0.000 Z0.000
o101 endsub
(=== End Subroutines ===)

(Werkzeug T01)
G0 Z2.000
G0 X80.000
M5
M9
(Toolchange move)
G0 X150.000 Z300.000
T01 M6
G0 X80.000 Z2.000


(Step 1: face)
(STEP: Gesicht planen)
G97 S955 M3 (CSS-Anfahrdrehzahl bei X40.000)
M8
F0.100
(Anfahren vor Zyklus)
G0 X40.000
G96 D2500 S120.0
G72 Q100 X40.000 Z2.000 D0.000 I0.050 R1.000
G97 S955 (CSS-Freifahrt)
G0 X80.000
G0 Z2.000
(Werkzeug T02)
M5
M9
(Toolchange move)
G0 X150.000 Z300.000
T02 M6
G0 X80.000 Z2.000

(Step 2: drill)
(STEP: Loch bohren)
G97 S900 M3
M9
(Anfahren vor Zyklus)
G0 X0.000
(G17 nur fuer Bohrzyklus - LinuxCNC Besonderheit)
G17
F0.100
G81 X0.000 Z-30.000 R2.000 F0.100
G80
G18
G0 Z2.000
G0 X80.000
(Werkzeug T01)
M5
M9
(Toolchange move)
G0 X150.000 Z300.000
T01 M6
G0 X80.000 Z2.000

(Step 3: face)
(STEP: Gesicht planen)
G97 S1432 M3 (CSS-Anfahrdrehzahl bei X40.000)
M8
F0.100
(Anfahren vor Zyklus)
G0 X40.000
G96 D2500 S180.0
G72 Q101 X40.000 Z2.000 D0.000 I0.050 R1.000
G97 S1432 (CSS-Freifahrt)
G0 X80.000
G0 Z2.000

(Werkzeugwechselpunkt am Ende)
G0 X150.000 Z300.000

M5
M9
M30
%