%
(Programm automatisch erzeugt)
(Programmname: Freistich_Mitte)
(Masseinheit: mm)
G18 G7 G90 G91.1 G40 G80
G21
G95
G54

(=== SICHERHEITSPARAMETER ===)
(Werkzeugwechselpunkt: X150.000 Z300.000 Werkstueckkoordinaten)
(Rueckzugsebenen: XRA=40.000 XRI=0.000)
(               ZRA=2.000 ZRI=-60.000)
(Rohteil Aussendurchmesser: 40.000 mm)
(Rohteil Z-Bereich: 0.000 bis -55.000 mm)
(=== END SICHERHEITSPARAMETER ===)


(STARTBEDINGUNG: Maschine wurde vom Bediener frei vom Werkstueck gefahren)
o<les_first_tool> if [#<_current_tool> NE 4]
M5
M9
(Erster Werkzeugwechsel)
G0 X150.000 Z300.000
T04 M6
o<les_first_tool> endif



(Step 2: abspanen)
(ABSPANEN)
G97 S600 M3
F0.100
(Strategie: manuell)
(Ausgabe bevorzugen: auto)
(Hinterschnitt-Modus: full)
(Schlichtschnitt Kontur)
G0 Z2.000
G0 X80.000
G0 X20.000
G1 X20.000 Z0.000 F0.100
G1 X20.000 Z-10.000 F0.100
G1 X20.000 Z-20.000 F0.100
G1 X17.700 Z-20.000 F0.100
G1 X17.700 Z-25.200 F0.100
G1 X20.000 Z-25.200 F0.100
G1 X20.000 Z-20.000 F0.100
G1 X20.000 Z-35.000 F0.100
G0 Z2.000
G0 X80.000
G0 Z2.000

(Werkzeugwechselpunkt am Ende)
G0 X150.000 Z300.000

M5
M9
M30
%